{
  "links" : {
    "next" : "https://api.nasa.gov/neo/rest/v1/feed?start_date=2000-07-09&end_date=2000-07-09&detailed=true&api_key=t0TVs3DtDT2H8Oy2Zy8m2eVrNsAVKAexjcZXUckd",
    "prev" : "https://api.nasa.gov/neo/rest/v1/feed?start_date=2000-07-07&end_date=2000-07-07&detailed=true&api_key=t0TVs3DtDT2H8Oy2Zy8m2eVrNsAVKAexjcZXUckd",
    "self" : "https://api.nasa.gov/neo/rest/v1/feed?start_date=2000-07-08&end_date=2000-07-08&detailed=true&api_key=t0TVs3DtDT2H8Oy2Zy8m2eVrNsAVKAexjcZXUckd"
  },
  "element_count" : 6,
  "near_earth_objects" : {
    "2000-07-08" : [ {
      "links" : {
        "self" : "https://api.nasa.gov/neo/rest/v1/neo/3596264?api_key=t0TVs3DtDT2H8Oy2Zy8m2eVrNsAVKAexjcZXUckd"
      },
      "neo_reference_id" : "3596264",
      "name" : "(2012 BA35)",
      "nasa_jpl_url" : "http://ssd.jpl.nasa.gov/sbdb.cgi?sstr=3596264",
      "absolute_magnitude_h" : 23.8,
      "estimated_diameter" : {
        "kilometers" : {
          "estimated_diameter_min" : 0.046190746,
          "estimated_diameter_max" : 0.1032856481
        },
        "meters" : {
          "estimated_diameter_min" : 46.1907460282,
          "estimated_diameter_max" : 103.2856480504
        },
        "miles" : {
          "estimated_diameter_min" : 0.0287015901,
          "estimated_diameter_max" : 0.0641787064
        },
        "feet" : {
          "estimated_diameter_min" : 151.544447199,
          "estimated_diameter_max" : 338.8636855496
        }
      },
      "is_potentially_hazardous_asteroid" : false,
      "close_approach_data" : [ {
        "close_approach_date" : "2000-07-08",
        "epoch_date_close_approach" : 963039600000,
        "relative_velocity" : {
          "kilometers_per_second" : "15.9749051896",
          "kilometers_per_hour" : "57509.6586827242",
          "miles_per_hour" : "35734.2654187182"
        },
        "miss_distance" : {
          "astronomical" : "0.4350176635",
          "lunar" : "169.2218780518",
          "kilometers" : "65077720",
          "miles" : "40437420"
        },
        "orbiting_body" : "Earth"
      } ],
      "orbital_data" : {
        "orbit_id" : "10",
        "orbit_determination_date" : "2017-04-06 08:51:16",
        "orbit_uncertainty" : "5",
        "minimum_orbit_intersection" : ".0176518",
        "jupiter_tisserand_invariant" : "5.752",
        "epoch_osculation" : "2458000.5",
        "eccentricity" : ".1177873588957815",
        "semi_major_axis" : "1.071728188618486",
        "inclination" : "5.714631467275153",
        "ascending_node_longitude" : "145.4513170440477",
        "orbital_period" : "405.2522244566042",
        "perihelion_distance" : ".9454921558269542",
        "perihelion_argument" : "234.5395447902016",
        "aphelion_distance" : "1.197964221410017",
        "perihelion_time" : "2457873.109179202826",
        "mean_anomaly" : "113.1658081543578",
        "mean_motion" : ".8883356543760318",
        "equinox" : "J2000"
      }
    }, {
      "links" : {
        "self" : "https://api.nasa.gov/neo/rest/v1/neo/3394543?api_key=t0TVs3DtDT2H8Oy2Zy8m2eVrNsAVKAexjcZXUckd"
      },
      "neo_reference_id" : "3394543",
      "name" : "(2007 VM184)",
      "nasa_jpl_url" : "http://ssd.jpl.nasa.gov/sbdb.cgi?sstr=3394543",
      "absolute_magnitude_h" : 20.9,
      "estimated_diameter" : {
        "kilometers" : {
          "estimated_diameter_min" : 0.1756123185,
          "estimated_diameter_max" : 0.3926810818
        },
        "meters" : {
          "estimated_diameter_min" : 175.6123184804,
          "estimated_diameter_max" : 392.6810818086
        },
        "miles" : {
          "estimated_diameter_min" : 0.1091204019,
          "estimated_diameter_max" : 0.2440006365
        },
        "feet" : {
          "estimated_diameter_min" : 576.1559189633,
          "estimated_diameter_max" : 1288.3238004408
        }
      },
      "is_potentially_hazardous_asteroid" : true,
      "close_approach_data" : [ {
        "close_approach_date" : "2000-07-08",
        "epoch_date_close_approach" : 963039600000,
        "relative_velocity" : {
          "kilometers_per_second" : "27.0609731847",
          "kilometers_per_hour" : "97419.5034650697",
          "miles_per_hour" : "60532.6909169485"
        },
        "miss_distance" : {
          "astronomical" : "0.3460187043",
          "lunar" : "134.601272583",
          "kilometers" : "51763660",
          "miles" : "32164448"
        },
        "orbiting_body" : "Earth"
      } ],
      "orbital_data" : {
        "orbit_id" : "34",
        "orbit_determination_date" : "2017-09-26 06:50:10",
        "orbit_uncertainty" : "0",
        "minimum_orbit_intersection" : ".0337336",
        "jupiter_tisserand_invariant" : "5.148",
        "epoch_osculation" : "2458000.5",
        "eccentricity" : ".523263108804333",
        "semi_major_axis" : "1.182148764701506",
        "inclination" : "23.27720540354022",
        "ascending_node_longitude" : "65.77208245525733",
        "orbital_period" : "469.4686819583911",
        "perihelion_distance" : ".5635739270145939",
        "perihelion_argument" : "110.1549531441406",
        "aphelion_distance" : "1.800723602388418",
        "perihelion_time" : "2457785.992688909412",
        "mean_anomaly" : "164.4894216808606",
        "mean_motion" : ".7668243140272065",
        "equinox" : "J2000"
      }
    }, {
      "links" : {
        "self" : "https://api.nasa.gov/neo/rest/v1/neo/3781002?api_key=t0TVs3DtDT2H8Oy2Zy8m2eVrNsAVKAexjcZXUckd"
      },
      "neo_reference_id" : "3781002",
      "name" : "(2017 QC17)",
      "nasa_jpl_url" : "http://ssd.jpl.nasa.gov/sbdb.cgi?sstr=3781002",
      "absolute_magnitude_h" : 22.477,
      "estimated_diameter" : {
        "kilometers" : {
          "estimated_diameter_min" : 0.0849483556,
          "estimated_diameter_max" : 0.1899502978
        },
        "meters" : {
          "estimated_diameter_min" : 84.9483556466,
          "estimated_diameter_max" : 189.9502978026
        },
        "miles" : {
          "estimated_diameter_min" : 0.0527844447,
          "estimated_diameter_max" : 0.1180296065
        },
        "feet" : {
          "estimated_diameter_min" : 278.7019631395,
          "estimated_diameter_max" : 623.1965350426
        }
      },
      "is_potentially_hazardous_asteroid" : false,
      "close_approach_data" : [ {
        "close_approach_date" : "2000-07-08",
        "epoch_date_close_approach" : 963039600000,
        "relative_velocity" : {
          "kilometers_per_second" : "18.6350190122",
          "kilometers_per_hour" : "67086.0684438631",
          "miles_per_hour" : "41684.6740283548"
        },
        "miss_distance" : {
          "astronomical" : "0.1229496251",
          "lunar" : "47.8274040222",
          "kilometers" : "18393002",
          "miles" : "11428882"
        },
        "orbiting_body" : "Earth"
      } ],
      "orbital_data" : {
        "orbit_id" : "2",
        "orbit_determination_date" : "2017-09-04 06:17:04",
        "orbit_uncertainty" : "6",
        "minimum_orbit_intersection" : ".0202335",
        "jupiter_tisserand_invariant" : "6.713",
        "epoch_osculation" : "2458000.5",
        "eccentricity" : ".5259666222442527",
        "semi_major_axis" : ".8639937632682871",
        "inclination" : "5.33606451691132",
        "ascending_node_longitude" : "115.6164065707726",
        "orbital_period" : "293.3353060861443",
        "perihelion_distance" : ".4095618819619656",
        "perihelion_argument" : "30.42915169472788",
        "aphelion_distance" : "1.318425644574609",
        "perihelion_time" : "2458125.726672319530",
        "mean_anomaly" : "206.3137539202606",
        "mean_motion" : "1.227264473558727",
        "equinox" : "J2000"
      }
    } ]
  }
}